[{"OBJECT_NAME":"STARLINK-34594","OBJECT_ID":"2025-167L","EPOCH":"2026-03-09T03:41:39.519168","MEAN_MOTION":15.30228068,"ECCENTRICITY":0.00018354,"INCLINATION":53.1625,"RA_OF_ASC_NODE":29.445,"ARG_OF_PERICENTER":84.837,"MEAN_ANOMALY":275.284,"EPHEMERIS_TYPE":0,"CLASSIFICATION_TYPE":"U","NORAD_CAT_ID":65088,"ELEMENT_SET_NO":999,"REV_AT_EPOCH":3339,"BSTAR":0.0014108964,"MEAN_MOTION_DOT":0.00041699,"MEAN_MOTION_DDOT":0},{"OBJECT_NAME":"OBJECT L","OBJECT_ID":"2024-024L","EPOCH":"2026-03-09T22:36:05.522976","MEAN_MOTION":15.29373491,"ECCENTRICITY":0.00073185,"INCLINATION":97.3169,"RA_OF_ASC_NODE":137.7038,"ARG_OF_PERICENTER":167.6369,"MEAN_ANOMALY":192.5052,"EPHEMERIS_TYPE":0,"CLASSIFICATION_TYPE":"U","NORAD_CAT_ID":58927,"ELEMENT_SET_NO":999,"REV_AT_EPOCH":9318,"BSTAR":0.00043092344,"MEAN_MOTION_DOT":0.00012217,"MEAN_MOTION_DDOT":0}]
